NORAD_CAT_ID,OBJECT_NAME,OBJECT_TYPE,EPOCH,MEAN_MOTION,ECCENTRICITY,INCLINATION,RA_OF_ASC_NODE,ARG_OF_PERICENTER,MEAN_ANOMALY,BSTAR,MEAN_MOTION_DOT,MEAN_MOTION_DDOT,TLE_LINE0,TLE_LINE1,TLE_LINE2,SEMIMAJOR_AXIS,PERIOD,APOGEE,PERIGEE,DECAYED
52547.0,STARLINK-3869,PAYLOAD,2022-10-12 14:15:31,15.08834265,0.0002101,53.2178,319.0909,32.6323,327.4799,-9.9754e-06,-4.47e-06,0.0,0 STARLINK-3869,1 52547U 22051Q   22285.59411551 -.00000447  00000-0 -99754-5 0  9999,2 52547  53.2178 319.0909 0002101  32.6323 327.4799 15.08834265 23553,6917.898,95.438,541.216,538.309,0.0
52547.0,STARLINK-3869,PAYLOAD,2022-10-13 04:34:00,15.08820342,0.0001824,53.2174,316.4149,30.1678,329.9419,0.00019702,2.847e-05,0.0,0 STARLINK-3869,1 52547U 22051Q   22286.19028262  .00002847  00000-0  19702-3 0  9996,2 52547  53.2174 316.4149 0001824  30.1678 329.9419 15.08820342 23718,6917.94,95.439,541.067,538.544,0.0
52547.0,STARLINK-3869,PAYLOAD,2022-10-13 10:55:36,15.08765198,0.0001969,53.2166,315.2256,30.6659,329.4448,-0.00063691,-0.0001039,0.0,0 STARLINK-3869,1 52547U 22051Q   22286.45528045 -.00010390  00000-0 -63691-3 0  9999,2 52547  53.2166 315.2256 0001969  30.6659 329.4448 15.08765198 23689,6918.109,95.442,541.336,538.612,0.0
52547.0,STARLINK-3869,PAYLOAD,2022-10-13 18:52:31,15.08800357,0.0001486,53.2166,313.7388,19.7766,340.3283,-0.00012211,-2.229e-05,0.0,0 STARLINK-3869,1 52547U 22051Q   22286.78646997 -.00002229  00000-0 -12211-3 0  9996,2 52547  53.2166 313.7388 0001486  19.7766 340.3283 15.08800357 23731,6918.002,95.44,540.895,538.839,0.0
52547.0,STARLINK-3869,PAYLOAD,2022-10-14 06:00:12,15.08843419,0.0002133,53.2167,311.6574,41.2135,318.9018,0.00050573,7.771e-05,0.0,0 STARLINK-3869,1 52547U 22051Q   22287.25013917  .00007771  00000-0  50573-3 0  9997,2 52547  53.2167 311.6574 0002133  41.2135 318.9018 15.08843419 23874,6917.87,95.437,541.211,538.259,0.0
52547.0,STARLINK-3869,PAYLOAD,2022-10-14 10:46:21,15.08853303,0.0002126999999999,53.2166,310.7655,44.1581,315.9581,0.00070288,0.0001092,0.0,0 STARLINK-3869,1 52547U 22051Q   22287.44885671  .00010920  00000-0  70288-3 0  9997,2 52547  53.2166 310.7655 0002127  44.1581 315.9581 15.08853303 23834,6917.84,95.437,541.1759999999998,538.2330000000002,0.0
52547.0,STARLINK-3869,PAYLOAD,2022-10-14 18:43:16,15.08855262,0.0002207,53.2164,309.2785,45.1317,314.9854,0.0008213,0.00012813,0.0,0 STARLINK-3869,1 52547U 22051Q   22287.78005773  .00012813  00000-0  82130-3 0  9993,2 52547  53.2164 309.2785 0002207  45.1317 314.9854 15.08855262 23889,6917.834,95.437,541.226,538.172,0.0
52547.0,STARLINK-3869,PAYLOAD,2022-10-15 12:12:31,15.08846311,0.000199,53.2167,306.0065,41.8953,318.2191,0.00052207,8.032e-05,0.0,0 STARLINK-3869,1 52547U 22051Q   22288.50869268  .00008032  00000-0  52207-3 0  9991,2 52547  53.2167 306.0065 0001990  41.8953 318.2191 15.08846311 23993,6917.861,95.437,541.1030000000002,538.349,0.0
52547.0,STARLINK-3869,PAYLOAD,2022-10-15 13:47:54,15.08847627,0.0002039,53.2166,305.7088,40.1735,319.9407,0.00052754,8.119e-05,0.0,0 STARLINK-3869,1 52547U 22051Q   22288.57493210  .00008119  00000-0  52754-3 0  9991,2 52547  53.2166 305.7088 0002039  40.1735 319.9407 15.08847627 24000,6917.857,95.437,541.133,538.312,0.0
52547.0,STARLINK-3869,PAYLOAD,2022-10-16 00:55:35,15.08861864,0.0002097,53.2167,303.6274,42.4453,317.6701,0.00010386,1.366e-05,0.0,0 STARLINK-3869,1 52547U 22051Q   22289.03860051  .00001366  00000-0  10386-3 0  9996,2 52547  53.2167 303.6274 0002097  42.4453 317.6701 15.08861864 24147,6917.814,95.436,541.129,538.2280000000002,0.0
52547.0,STARLINK-3869,PAYLOAD,2022-10-16 10:27:54,15.08846912,0.0002065,53.2172,301.8444,37.5059,322.6077,-0.00010828,-2.011e-05,0.0,0 STARLINK-3869,1 52547U 22051Q   22289.43605211 -.00002011  00000-0 -10828-3 0  9996,2 52547  53.2172 301.8444 0002065  37.5059 322.6077 15.08846912 24200,6917.859,95.437,541.153,538.2959999999998,0.0
52547.0,STARLINK-3869,PAYLOAD,2022-10-16 18:24:51,15.08838859,0.0002051,53.2167,300.357,38.8802,321.2338,-0.00019157,-3.336e-05,0.0,0 STARLINK-3869,1 52547U 22051Q   22289.76725775 -.00003336  00000-0 -19157-3 0  9995,2 52547  53.2167 300.3570 0002051  38.8802 321.2338 15.08838859 24254,6917.884,95.438,541.168,538.33,0.0
52547.0,STARLINK-3869,PAYLOAD,2022-10-17 10:18:41,15.08843628,0.0002003,53.2171,297.3828,38.5397,321.5738,-2.572e-06,-3.29e-06,0.0,0 STARLINK-3869,1 52547U 22051Q   22290.42964933 -.00000329  00000-0 -25720-5 0  9995,2 52547  53.2171 297.3828 0002003  38.5397 321.5738 15.08843628 24351,6917.869000000002,95.437,541.12,538.349,0.0
52547.0,STARLINK-3869,PAYLOAD,2022-10-17 11:54:04,15.08845284,0.0002016,53.2172,297.0858,38.343,321.7705,2.0542e-05,3.9e-07,0.0,0 STARLINK-3869,1 52547U 22051Q   22290.49588764  .00000039  00000-0  20542-4 0  9998,2 52547  53.2172 297.0858 0002016  38.3430 321.7705 15.08845284 24291,6917.864000000001,95.437,541.124,538.335,0.0
52547.0,STARLINK-3869,PAYLOAD,2022-10-18 10:09:28,15.08845229,0.0002013,53.2162,292.9228,36.1654,323.9474,0.00027822,4.143e-05,0.0,0 STARLINK-3869,1 52547U 22051Q   22291.42324595  .00004143  00000-0  27822-3 0  9999,2 52547  53.2162 292.9228 0002013  36.1654 323.9474 15.08845229 24438,6917.864000000001,95.437,541.122,538.337,0.0
52547.0,STARLINK-3869,PAYLOAD,2022-10-19 03:38:43,15.08841341,0.0002097,53.2162,289.6522,37.7153,322.3986,5.8954e-05,6.5e-06,0.0,0 STARLINK-3869,1 52547U 22051Q   22292.15188725  .00000650  00000-0  58954-4 0  9993,2 52547  53.2162 289.6522 0002097  37.7153 322.3986 15.08841341 24613,6917.876,95.437,541.192,538.2909999999998,0.0
52547.0,STARLINK-3869,PAYLOAD,2022-10-19 10:00:15,15.08844733,0.0002097,53.2162,288.4625,37.9581,322.1559,0.00011871,1.602e-05,0.0,0 STARLINK-3869,1 52547U 22051Q   22292.41684597  .00001602  00000-0  11871-3 0  9994,2 52547  53.2162 288.4625 0002097  37.9581 322.1559 15.08844733 24589,6917.866,95.437,541.182,538.28,0.0
52547.0,STARLINK-3869,PAYLOAD,2022-10-20 06:40:15,15.08844361,0.0002162,53.2161,284.597,36.7173,323.3967,-8.5478e-05,-1.649e-05,0.0,0 STARLINK-3869,1 52547U 22051Q   22293.27796114 -.00001649  00000-0 -85478-4 0  9996,2 52547  53.2161 284.5970 0002162  36.7173 323.3967 15.08844361 24780,6917.8669999999975,95.437,541.2280000000002,538.236,0.0
52547.0,STARLINK-3869,PAYLOAD,2022-10-20 08:15:39,15.08843374,0.0002156,53.2163,284.2997,39.713,320.402,-5.887e-05,-1.225e-05,0.0,0 STARLINK-3869,1 52547U 22051Q   22293.34420157 -.00001225  00000-0 -58870-4 0  9991,2 52547  53.2163 284.2997 0002156  39.7130 320.4020 15.08843374 24722,6917.87,95.437,541.227,538.244,0.0
52547.0,STARLINK-3869,PAYLOAD,2022-10-21 09:41:49,15.08839552,0.0002101,53.2171,279.5412,38.2899,321.8242,3.6211e-05,2.88e-06,0.0,0 STARLINK-3869,1 52547U 22051Q   22294.40404459  .00000288  00000-0  36211-4 0  9997,2 52547  53.2171 279.5412 0002101  38.2899 321.8242 15.08839552 24955,6917.882,95.438,541.2,538.293,0.0
52547.0,STARLINK-3869,PAYLOAD,2022-10-21 11:17:12,15.08840426,0.0002085,53.2171,279.2437,38.3167,321.7973,3.8345e-05,3.22e-06,0.0,0 STARLINK-3869,1 52547U 22051Q   22294.47028389  .00000322  00000-0  38345-4 0  9997,2 52547  53.2171 279.2437 0002085  38.3167 321.7973 15.08840426 24894,6917.879,95.438,541.186,538.302,0.0
52547.0,STARLINK-3869,PAYLOAD,2022-10-21 16:03:21,15.08845002,0.0002089999999999,53.2171,278.3518,38.5695,321.5446,7.2725e-05,8.7e-06,0.0,0 STARLINK-3869,1 52547U 22051Q   22294.66899979  .00000870  00000-0  72725-4 0  9997,2 52547  53.2171 278.3518 0002090  38.5695 321.5446 15.08845002 24920,6917.865,95.437,541.1759999999998,538.284,0.0
52547.0,STARLINK-3869,PAYLOAD,2022-10-22 04:46:25,15.08862052,0.0002276999999999,53.217,275.9725,44.9601,315.1575,-8.654200000000001e-05,-1.666e-05,0.0,0 STARLINK-3869,1 52547U 22051Q   22295.19891126 -.00001666  00000-0 -86542-4 0  9990,2 52547  53.2170 275.9725 0002277  44.9601 315.1575 15.08862052 25070,6917.813,95.436,541.253,538.1030000000002,0.0
52547.0,STARLINK-3869,PAYLOAD,2022-10-22 07:57:12,15.0884362,0.0002110999999999,53.217,275.378,38.2668,321.8474,0.00012882,1.763e-05,0.0,0 STARLINK-3869,1 52547U 22051Q   22295.33139780  .00001763  00000-0  12882-3 0  9998,2 52547  53.2170 275.3780 0002111  38.2668 321.8474 15.08843620 25028,6917.869000000002,95.437,541.195,538.274,0.0
52547.0,STARLINK-3869,PAYLOAD,2022-10-22 15:54:08,15.08845349,0.0002089,53.2172,273.8905,36.5228,323.5907,9.0551e-05,1.153e-05,0.0,0 STARLINK-3869,1 52547U 22051Q   22295.66259669  .00001153  00000-0  90551-4 0  9996,2 52547  53.2172 273.8905 0002089  36.5228 323.5907 15.08845349 25074,6917.864000000001,95.437,541.174,538.284,0.0
52547.0,STARLINK-3869,PAYLOAD,2022-10-23 04:37:13,15.08838512,0.0002165,53.2175,271.5124,31.6774,328.4348,7.7853e-05,9.51e-06,0.0,0 STARLINK-3869,1 52547U 22051Q   22296.19252080  .00000951  00000-0  77853-4 0  9990,2 52547  53.2175 271.5124 0002165  31.6774 328.4348 15.08838512 25226,6917.885,95.438,541.248,538.252,0.0
52547.0,STARLINK-3869,PAYLOAD,2022-10-23 10:58:45,15.08846558,0.00021,53.2172,270.3228,40.3741,319.7406,0.00012323,1.674e-05,0.0,0 STARLINK-3869,1 52547U 22051Q   22296.45747453  .00001674  00000-0  12323-3 0  9995,2 52547  53.2172 270.3228 0002100  40.3741 319.7406 15.08846558 25266,6917.86,95.437,541.178,538.273,0.0
52547.0,STARLINK-3869,PAYLOAD,2022-10-23 15:44:54,15.08850891,0.00021,53.2173,269.4307,40.6872,319.4277,0.00014805,2.069e-05,0.0,0 STARLINK-3869,1 52547U 22051Q   22296.65619061  .00002069  00000-0  14805-3 0  9996,2 52547  53.2173 269.4307 0002100  40.6872 319.4277 15.08850891 25226,6917.847,95.437,541.165,538.259,0.0
52547.0,STARLINK-3869,PAYLOAD,2022-10-24 04:27:59,15.08857055,0.000207,53.2176,267.0514,39.2095,320.9047,0.00012435,1.692e-05,0.0,0 STARLINK-3869,1 52547U 22051Q   22297.18610315  .00001692  00000-0  12435-3 0  9996,2 52547  53.2176 267.0514 0002070  39.2095 320.9047 15.08857055 25377,6917.828,95.436,541.125,538.261,0.0
